{"type": "FeatureCollection", "features": [ {"type": "Feature", "properties": {"norad_id": 41774, "name": "SKYSAT-C3", "group": "resource", "lat": -47.13188683046007, "lon": 18.410368551734898, "alt_km": 442.4051014296392, "timestamp": "2025-12-02T15:49:06.840366+00:00", "meta": {"OBJECT_NAME": "SKYSAT-C3", "OBJECT_ID": "2016-058E", "EPOCH": "2025-12-02T02:01:26.634720", "MEAN_MOTION": 15.43828804, "ECCENTRICITY": 0.00013941, "INCLINATION": 96.9318, "RA_OF_ASC_NODE": 10.3311, "ARG_OF_PERICENTER": 98.2621, "MEAN_ANOMALY": 261.8787, "EPHEMERIS_TYPE": 0, "CLASSIFICATION_TYPE": "U", "NORAD_CAT_ID": 41774, "ELEMENT_SET_NO": 999, "REV_AT_EPOCH": 51561, "BSTAR": 0.000469643, "MEAN_MOTION_DOT": 0.0002123, "MEAN_MOTION_DDOT": 0}, "tle": {"line1": "1 41774U 16058E   25336.08433605  .00021230  00000+0  46964-3 0  9990", "line2": "2 41774  96.9318  10.3311 0001394  98.2621 261.8787 15.43828804515615"}}, "geometry": {"type": "Point", "coordinates": [18.410368551734898, -47.13188683046007]}}, {"type": "Feature", "properties": {"norad_id": 41785, "name": "ALSAT 1B", "group": "resource", "lat": -78.65489084392533, "lon": 125.91544599180871, "alt_km": 666.4579759466096, "timestamp": "2025-12-02T15:49:06.840376+00:00", "meta": {"OBJECT_NAME": "ALSAT 1B", "OBJECT_ID": "2016-059C", "EPOCH": "2025-12-02T06:28:37.869600", "MEAN_MOTION": 14.72057263, "ECCENTRICITY": 0.00103217, "INCLINATION": 97.782, "RA_OF_ASC_NODE": 348.5114, "ARG_OF_PERICENTER": 133.5528, "MEAN_ANOMALY": 226.6539, "EPHEMERIS_TYPE": 0, "CLASSIFICATION_TYPE": "U", "NORAD_CAT_ID": 41785, "ELEMENT_SET_NO": 999, "REV_AT_EPOCH": 49160, "BSTAR": 9.8649849e-05, "MEAN_MOTION_DOT": 5.73e-06, "MEAN_MOTION_DDOT": 0}, "tle": {"line1": "1 41785U 16059C   25336.26988275  .00000573  00000+0  98650-4 0  9998", "line2": "2 41785  97.7820 348.5114 0010321 133.5528 226.6539 14.72057263491600"}}, "geometry": {"type": "Point", "coordinates": [125.91544599180871, -78.65489084392533]}}, {"type": "Feature", "properties": {"norad_id": 41787, "name": "PATHFINDER 1", "group": "resource", "lat": 26.72790021951793, "lon": 163.8658328656372, "alt_km": 652.8180380219237, "timestamp": "2025-12-02T15:49:06.840391+00:00", "meta": {"OBJECT_NAME": "PATHFINDER 1", "OBJECT_ID": "2016-059E", "EPOCH": "2025-12-02T06:56:35.490624", "MEAN_MOTION": 14.67291697, "ECCENTRICITY": 0.00299301, "INCLINATION": 97.814, "RA_OF_ASC_NODE": 339.548, "ARG_OF_PERICENTER": 112.9409, "MEAN_ANOMALY": 247.4959, "EPHEMERIS_TYPE": 0, "CLASSIFICATION_TYPE": "U", "NORAD_CAT_ID": 41787, "ELEMENT_SET_NO": 999, "REV_AT_EPOCH": 49083, "BSTAR": 0.0002013003, "MEAN_MOTION_DOT": 1.096e-05, "MEAN_MOTION_DDOT": 0}, "tle": {"line1": "1 41787U 16059E   25336.28929966  .00001096  00000+0  20130-3 0  9992", "line2": "2 41787  97.8140 339.5480 0029930 112.9409 247.4959 14.67291697490835"}}, "geometry": {"type": "Point", "coordinates": [163.8658328656372, 26.72790021951793]}}, {"type": "Feature", "properties": {"norad_id": 41790, "name": "SCATSAT 1", "group": "resource", "lat": 79.82737102065903, "lon": -19.781756921121353, "alt_km": 615.8720496472051, "timestamp": "2025-12-02T15:49:06.840402+00:00", "meta": {"OBJECT_NAME": "SCATSAT 1", "OBJECT_ID": "2016-059H", "EPOCH": "2025-12-02T04:04:18.892704", "MEAN_MOTION": 14.78875526, "ECCENTRICITY": 0.00557394, "INCLINATION": 98.1482, "RA_OF_ASC_NODE": 32.708, "ARG_OF_PERICENTER": 161.5626, "MEAN_ANOMALY": 198.7622, "EPHEMERIS_TYPE": 0, "CLASSIFICATION_TYPE": "U", "NORAD_CAT_ID": 41790, "ELEMENT_SET_NO": 999, "REV_AT_EPOCH": 7246, "BSTAR": 0.00029277794, "MEAN_MOTION_DOT": 2.157e-05, "MEAN_MOTION_DDOT": 0}, "tle": {"line1": "1 41790U 16059H   25336.16966311  .00002157  00000+0  29278-3 0  9999", "line2": "2 41790  98.1482  32.7080 0055739 161.5626 198.7622 14.78875526 72468"}}, "geometry": {"type": "Point", "coordinates": [-19.781756921121353, 79.82737102065903]}}, {"type": "Feature", "properties": {"norad_id": 41875, "name": "GOKTURK 1A", "group": "resource", "lat": 33.582157861873945, "lon": -136.2966311072666, "alt_km": 681.5755129052695, "timestamp": "2025-12-02T15:49:06.840413+00:00", "meta": {"OBJECT_NAME": "GOKTURK 1A", "OBJECT_ID": "2016-073A", "EPOCH": "2025-12-02T07:27:18.806976", "MEAN_MOTION": 14.62759385, "ECCENTRICITY": 0.00012448, "INCLINATION": 98.1431, "RA_OF_ASC_NODE": 228.8148, "ARG_OF_PERICENTER": 82.0007, "MEAN_ANOMALY": 278.1336, "EPHEMERIS_TYPE": 0, "CLASSIFICATION_TYPE": "U", "NORAD_CAT_ID": 41875, "ELEMENT_SET_NO": 999, "REV_AT_EPOCH": 48004, "BSTAR": 0.00016112957, "MEAN_MOTION_DOT": 7.75e-06, "MEAN_MOTION_DDOT": 0}, "tle": {"line1": "1 41875U 16073A   25336.31063434  .00000775  00000+0  16113-3 0  9998", "line2": "2 41875  98.1431 228.8148 0001244  82.0007 278.1336 14.62759385480040"}}, "geometry": {"type": "Point", "coordinates": [-136.2966311072666, 33.582157861873945]}}, {"type": "Feature", "properties": {"norad_id": 41877, "name": "RESOURCESAT-2A", "group": "resource", "lat": 44.711486125278974, "lon": -124.62903462114595, "alt_km": 816.9555144770475, "timestamp": "2025-12-02T15:49:06.840424+00:00", "meta": {"OBJECT_NAME": "RESOURCESAT-2A", "OBJECT_ID": "2016-074A", "EPOCH": "2025-12-02T06:44:30.465888", "MEAN_MOTION": 14.21592085, "ECCENTRICITY": 0.00011837, "INCLINATION": 98.7769, "RA_OF_ASC_NODE": 46.1973, "ARG_OF_PERICENTER": 307.4054, "MEAN_ANOMALY": 52.7016, "EPHEMERIS_TYPE": 0, "CLASSIFICATION_TYPE": "U", "NORAD_CAT_ID": 41877, "ELEMENT_SET_NO": 999, "REV_AT_EPOCH": 46632, "BSTAR": 0.00011224898, "MEAN_MOTION_DOT": 2.02e-06, "MEAN_MOTION_DDOT": 0}, "tle": {"line1": "1 41877U 16074A   25336.28090817  .00000202  00000+0  11225-3 0  9996", "line2": "2 41877  98.7769  46.1973 0001183 307.4054  52.7016 14.21592085466320"}}, "geometry": {"type": "Point", "coordinates": [-124.62903462114595, 44.711486125278974]}}, {"type": "Feature", "properties": {"norad_id": 41948, "name": "CARTOSAT-2D", "group": "resource", "lat": -24.067973019143313, "lon": -149.0370371411457, "alt_km": 510.1704982819465, "timestamp": "2025-12-02T15:49:06.840434+00:00", "meta": {"OBJECT_NAME": "CARTOSAT-2D", "OBJECT_ID": "2017-008A", "EPOCH": "2025-12-02T10:10:50.278656", "MEAN_MOTION": 15.19329377, "ECCENTRICITY": 0.0004806, "INCLINATION": 97.4403, "RA_OF_ASC_NODE": 34.0778, "ARG_OF_PERICENTER": 201.7452, "MEAN_ANOMALY": 158.3579, "EPHEMERIS_TYPE": 0, "CLASSIFICATION_TYPE": "U", "NORAD_CAT_ID": 41948, "ELEMENT_SET_NO": 999, "REV_AT_EPOCH": 48770, "BSTAR": 2.2693e-06, "MEAN_MOTION_DOT": -2e-07, "MEAN_MOTION_DDOT": 0}, "tle": {"line1": "1 41948U 17008A   25336.42419304 -.00000020  00000+0  22693-5 0  9997", "line2": "2 41948  97.4403  34.0778 0004806 201.7452 158.3579 15.19329377487704"}}, "geometry": {"type": "Point", "coordinates": [-149.0370371411457, -24.067973019143313]}}, {"type": "Feature", "properties": {"norad_id": 42063, "name": "SENTINEL-2B", "group": "resource", "lat": 49.89728237578824, "lon": -120.43544536860345, "alt_km": 783.7620359644752, "timestamp": "2025-12-02T15:49:06.840445+00:00", "meta": {"OBJECT_NAME": "SENTINEL-2B", "OBJECT_ID": "2017-013A", "EPOCH": "2025-12-02T06:49:29.809920", "MEAN_MOTION": 14.30809168, "ECCENTRICITY": 0.00011181, "INCLINATION": 98.5728, "RA_OF_ASC_NODE": 48.8766, "ARG_OF_PERICENTER": 98.6078, "MEAN_ANOMALY": 261.5231, "EPHEMERIS_TYPE": 0, "CLASSIFICATION_TYPE": "U", "NORAD_CAT_ID": 42063, "ELEMENT_SET_NO": 999, "REV_AT_EPOCH": 45648, "BSTAR": 9.654514e-05, "MEAN_MOTION_DOT": 2.09e-06, "MEAN_MOTION_DDOT": 0}, "tle": {"line1": "1 42063U 17013A   25336.28437280  .00000209  00000+0  96545-4 0  9993", "line2": "2 42063  98.5728  48.8766 0001118  98.6078 261.5231 14.30809168456481"}}, "geometry": {"type": "Point", "coordinates": [-120.43544536860345, 49.89728237578824]}}, {"type": "Feature", "properties": {"norad_id": 42767, "name": "CARTOSAT-2E", "group": "resource", "lat": 63.9847045942285, "lon": -130.05368183215558, "alt_km": 503.3920312217706, "timestamp": "2025-12-02T15:49:06.840455+00:00", "meta": {"OBJECT_NAME": "CARTOSAT-2E", "OBJECT_ID": "2017-036C", "EPOCH": "2025-12-02T07:24:39.576096", "MEAN_MOTION": 15.19331341, "ECCENTRICITY": 0.00027185, "INCLINATION": 97.4579, "RA_OF_ASC_NODE": 34.0313, "ARG_OF_PERICENTER": 276.2492, "MEAN_ANOMALY": 83.8433, "EPHEMERIS_TYPE": 0, "CLASSIFICATION_TYPE": "U", "NORAD_CAT_ID": 42767, "ELEMENT_SET_NO": 999, "REV_AT_EPOCH": 46825, "BSTAR": 0.00033186362, "MEAN_MOTION_DOT": 6.945e-05, "MEAN_MOTION_DDOT": 0}, "tle": {"line1": "1 42767U 17036C   25336.30879139  .00006945  00000+0  33186-3 0  9999", "line2": "2 42767  97.4579  34.0313 0002718 276.2492  83.8433 15.19331341468258"}}, "geometry": {"type": "Point", "coordinates": [-130.05368183215558, 63.9847045942285]}}, {"type": "Feature", "properties": {"norad_id": 42920, "name": "FORMOSAT-5", "group": "resource", "lat": 58.88997498385337, "lon": -114.91736705401671, "alt_km": 723.1311117869382, "timestamp": "2025-12-02T15:49:06.840466+00:00", "meta": {"OBJECT_NAME": "FORMOSAT-5", "OBJECT_ID": "2017-049A", "EPOCH": "2025-12-02T05:20:13.797888", "MEAN_MOTION": 14.50994908, "ECCENTRICITY": 0.00103806, "INCLINATION": 98.2464, "RA_OF_ASC_NODE": 50.7495, "ARG_OF_PERICENTER": 330.5611, "MEAN_ANOMALY": 29.4998, "EPHEMERIS_TYPE": 0, "CLASSIFICATION_TYPE": "U", "NORAD_CAT_ID": 42920, "ELEMENT_SET_NO": 999, "REV_AT_EPOCH": 43811, "BSTAR": 9.7048077e-05, "MEAN_MOTION_DOT": 3.4e-06, "MEAN_MOTION_DDOT": 0}, "tle": {"line1": "1 42920U 17049A   25336.22238192  .00000340  00000+0  97048-4 0  9994", "line2": "2 42920  98.2464  50.7495 0010380 330.5611  29.4998 14.50994908438110"}}, "geometry": {"type": "Point", "coordinates": [-114.91736705401671, 58.88997498385337]}}]}